SAUDISAT 1C             
1 27607U 02058C   22262.75878794  .00000755  00000+0  12355-3 0  9991
2 27607  64.5567  13.2855 0081500 276.4159  82.7668 14.76247473 62290
SAUDISAT 2              
1 28371U 04025F   22263.49088905 -.00000031  00000+0  37111-5 0  9992
2 28371  98.3865 220.4675 0025471 170.1759 189.9908 14.54598452967101
SAUDISAT 3              
1 31118U 07012B   22263.30359823  .00000208  00000+0  43405-4 0  9991
2 31118  97.9761 208.0889 0013767 252.5175 107.4526 14.69367710827085
PISAT                   
1 41784U 16059B   22262.12027292  .00000474  00000+0  98704-4 0  9990
2 41784  97.9079 301.7913 0030650 231.7957 128.0485 14.64000613319397
FLYING LAPTOP           
1 42831U 17042G   22263.30276435  .00000403  00000+0  44862-4 0  9991
2 42831  97.4134 112.2061 0015174  53.9159 306.3435 14.91932230282236
SALSAT                  
1 46495U 20068K   22262.79421721  .00003193  00000+0  22982-3 0  9992
2 46495  97.7337 204.1673 0015513 322.0564  37.9568 15.04861798108372
